#dP2018  7 24  0  0  0.00000000      96 __u+U ITR00 FIT  IAC
## 2011 172800.00000000   900.00000000 58323 0.0000000000000
+   85   C01C02C03C04C06C07C08C09C10C11C12C13C14E01E02E03E04
+        E05E07E08E09E11E12E14E18E19E24E26E30G01G02G03G04G05
+        G06G07G08G09G10G11G12G13G14G15G16G17G18G19G20G21G22
+        G23G24G25G26G27G28G29G30G31G32J01R01R02R03R04R05R07
+        R08R09R10R11R13R14R15R16R17R18R19R20R21R22R23R24R26
++         0  0  0  0  0  0  0  0  0  0  0  0  0  0  0  0  0
++         0  0  0  0  0  0  0  0  0  0  0  0  0  0  0  0  0
++         0  0  0  0  0  0  0  0  0  0  0  0  0  0  0  0  0
++         0  0  0  0  0  0  0  0  0  0  0  0  0  0  0  0  0
++         0  0  0  0  0  0  0  0  0  0  0  0  0  0  0  0  0
%c M  cc GPS ccc cccc cccc cccc cccc ccccc ccccc ccccc ccccc
%c cc cc ccc ccc cccc cccc cccc cccc ccccc ccccc ccccc ccccc
%f  0.0000000  0.000000000  0.00000000000  0.000000000000000
%f  0.0000000  0.000000000  0.00000000000  0.000000000000000
%i    0    0    0    0      0      0      0      0         0
%i    0    0    0    0      0      0      0      0         0
/*                                                          
/*   RSA / INFORMATION & ANALYSIS CENTER (IAC) OF MCC       
/*   ULTRA-RAPID DETERMINATION                              
/* PCV:IGS14_2000 OL/AL:FES2004  NONE     YN ORB:CoN CLK:CoN
*  2018 07 24 12 45  0.00000000
PC01 -32308.912980  27086.109768  -1093.967410    380.473018
PC02   4381.786807  41921.033162    991.939230    -53.350600
PC03 -14755.337420  39508.726332   -691.804959   -181.243500
PC04 -39616.406022  14404.213707   -602.456896   -257.375209
PC06  -6300.986833  29478.867597  29892.295599    117.648643
PC07 -23003.820111  23299.936769 -26692.337488     53.875018
PC08 -18828.266637  37532.133464  -1468.209887    452.711777
PC09   4662.607656  36521.691547  21017.997230     78.028285
PC10  -6040.348749  25876.523455 -32665.572438   -411.197324
PC11 -15432.916415  -1998.816078 -23118.994569   -605.066379
PC12 -10572.100277 -21702.464998 -14030.691341    528.978289
PC13 -10472.845244  39390.849809  10292.178805   -192.943995
PC14 -25922.111197  -6632.675409   7897.162991    288.868627
PE01  26335.718730 -11020.305304   7795.652970   -397.597935
PE02 -26329.494873  11038.042502  -7822.938535     20.745427
PE03 -16352.415446   7040.258150  23658.182263    -57.959162
PE04   -434.703892 -21735.244153 -20076.716239    -81.812387
PE05 -23609.039638 -11836.030952  13377.974591    223.346549
PE07  17022.489836  23748.003966   4723.789428     -7.689446
PE08    706.045405  21647.260488  20181.513800   6537.692001
PE09 -17276.104327 -23571.650764  -4735.538762   6725.939992
PE11  -6289.448435 -22104.251723 -18655.036541   2829.882016
PE12   7813.262055 -28507.233130  -1384.268236   4672.197210
PE14  14509.169332  -3384.716943  18074.206040   6546.376168
PE18 -18964.275855   8943.662160 -24945.410701   6035.518774
PE19  17446.077007  -5228.087108 -23323.821599    -13.833536
PE24 -12545.912782 -13010.904367  23431.054619   6584.176524
PE26  16334.846500   3226.911420  24469.825752   5673.560369
PE30  -9765.187363  17006.623587 -22179.698515   5652.571095
PG01  12356.870664 -22051.212116  -7787.341656    -69.019169
PG02 -20023.191109  12213.832557 -11673.607308     48.825442
PG03   6055.997482 -14196.517666 -21635.200528    110.662330
PG04  24966.971095   8593.175619  -4300.040629     81.522475
PG05 -24074.746412   3660.761140  10750.660817     -4.148680
PG06 -16187.530896  -3016.034831 -20816.396159    383.918384
PG07  -1422.421988 -18455.267167  19100.851199    153.592726
PG08   8585.635483 -15813.283033  19526.190743   -109.256960
PG09  -7151.780749 -25446.279433  -2565.851549    513.042218
PG10  22245.686589  11114.941319   9601.481545    188.449919
PG11   8861.407703 -25042.462566   1640.001011   -728.532459
PG12 -11762.565610  11336.676697 -21090.460447    318.855802
PG13 -13559.287629   7386.508381  21503.599245    -92.009516
PG14  16018.949791   8828.416354 -19017.182689    -97.648694
PG15  -5966.108487  18787.766530  17403.647796   -350.089602
PG16  24696.284887     15.585049  10154.467510     16.500704
PG17 -14213.849468 -18078.322623 -13006.052967    -74.859305
PG18  16921.955247 -20308.977962    762.133301     37.435166
PG19 -15692.777204  -9057.367133 -19664.817908   -417.742859
PG20  14797.658902  13970.736558  16995.708287    512.953616
PG21   5933.445868  16617.065549  20662.759001   -362.931202
PG22  14755.012249 -11947.993088 -18325.949359   -467.715573
PG23   1017.605145 -23224.474630 -12152.085185   -213.988757
PG24 -14233.621372  21969.298066  -3550.083001    -52.997862
PG25   4591.583299  15615.315411 -21216.555237   -620.968018
PG26  26231.346876   4619.222217    -28.145065    -73.722981
PG27  14473.755125  -3409.729254  21931.669821    358.978527
PG28 -19145.084311 -14076.815272  12427.950146    733.477729
PG29   4238.962799  25888.966018  -4200.629621    408.977631
PG30 -10612.575030 -11441.622549  21503.467108     46.606166
PG31  17715.230614   1202.315833 -19846.075290    105.539283
PG32  15743.085635  16942.048695 -13097.287066   -468.238614
PJ01 -26700.599244  23790.675437  27498.628617   -168.081615
PR01 -21190.873459 -13922.247169   2877.705110     29.525236
PR02 -16262.603435   -696.230472  19663.971360    321.245802
PR03  -1841.651505  12062.827230  22449.132802    138.548853
PR04  14050.968999  17733.479992  11815.161217    269.707654
PR05  21503.767475  12636.657357  -5325.304602    -45.159098
PR07   1460.722044 -12253.102590 -22280.571458    -43.162085
PR08 -13585.397015 -17712.649471 -12285.197789     22.134883
PR09  23576.893407  -9636.753356     72.314106     19.709071
PR10  14419.364576 -13708.028263  15889.717571     28.474145
PR11  -3961.215468 -10274.947145  23024.046812    -35.560541
PR13 -23487.272072   9969.386183    132.675345    -12.845848
PR14 -14483.481530  13961.966954 -15682.972565     29.357412
PR15   -581.912771  11527.966861 -22727.002555    -13.614767
PR16  18926.133095    744.836263 -17160.304416     97.668138
PR17  -6747.490241  23319.837062  -7770.739045    150.437415
PR18   1086.346487  23770.860798   9276.048992    204.145329
PR19   8111.745651  11086.656239  21486.003024    -56.946710
PR20  11038.701578  -9430.728195  20959.565674   -346.258120
PR21   6552.457246 -23527.849098   7399.663264      5.607138
PR22  -2045.255743 -22726.788329 -11272.743435    -56.776425
PR23  -9491.642356  -6722.155783 -22715.784068    167.692433
PR24 -10842.965934  10743.619691 -20472.123982   -169.264309
PR26  10955.739457  -8621.908739  21372.872826     36.312494
EOF
